     3.00           N: GNSS NAV DATA    M: Mixed            RINEX VERSION / TYPE
RTKCONV demo5 b34f.1                    20231230 123542 UTC PGM / RUN BY / DATE 
format: u-blox UBX                                          COMMENT             
log: C:\Users\oo\Desktop\divers\verniquet\Reseau\micro\reseaCOMMENT             
                                                            END OF HEADER       
E24 2023 12 30 10 00 00 -.514139886945D-03 -.210036432691D-10  .000000000000D+00
      .280000000000D+02 -.100625000000D+02  .332656713630D-08 -.783530315446D+00
     -.508502125740D-06  .736447982490D-03  .635534524918D-05  .544061802864D+04
      .554400000000D+06 -.167638063431D-07  .269279106293D+01  .558793544769D-08
      .965212747888D+00  .205062500000D+03  .795563071195D+00 -.556130307917D-08
     -.500735143343D-09  .513000000000D+03  .229400000000D+04  .000000000000D+00
      .312000000000D+01  .000000000000D+00 -.325962901115D-08 -.419095158577D-08
      .555085000000D+06  .000000000000D+00
E04 2023 12 30 10 00 00 -.291903852485D-03 -.883915163286D-11  .000000000000D+00
      .280000000000D+02 -.102031250000D+03  .289690638206D-08 -.104416785566D+01
     -.479631125927D-05  .948854722083D-04  .104084610939D-04  .544063032532D+04
      .554400000000D+06 -.298023223877D-07  .590413519264D+00  .558793544769D-08
      .960434162555D+00  .116968750000D+03 -.237025862912D+01 -.533879381076D-08
      .222866426138D-09  .513000000000D+03  .229400000000D+04  .000000000000D+00
      .312000000000D+01  .000000000000D+00 -.279396772385D-08 -.302679836750D-08
      .555085000000D+06  .000000000000D+00
E18 2023 12 30 10 00 00  .153160421178D-03  .434141611549D-10  .000000000000D+00
      .280000000000D+02  .120312500000D+02  .646169772708D-08 -.101675434788D+01
     -.584870576859D-06  .161042242660D+00  .842474400997D-05  .528933240891D+04
      .554400000000D+06 -.955536961555D-06 -.248414292486D+01 -.261701643467D-05
      .869898522125D+00  .180593750000D+03  .252567415825D+01 -.988398313614D-08
      .112790412459D-08  .513000000000D+03  .229400000000D+04  .000000000000D+00
      .312000000000D+01  .130000000000D+03 -.232830643654D-08 -.302679836750D-08
      .555295000000D+06  .000000000000D+00
E05 2023 12 30 10 00 00  .470545270946D-02  .365218966181D-11  .000000000000D+00
      .280000000000D+02 -.119625000000D+03  .295512309274D-08 -.134422243176D+01
     -.549294054508D-05  .669289147481D-04  .113435089588D-04  .544061461830D+04
      .554400000000D+06  .223517417908D-07  .590306963237D+00  .149011611938D-07
      .960409379260D+00  .951875000000D+02  .264043216572D+01 -.536200906349D-08
      .225723688012D-09  .513000000000D+03  .229400000000D+04  .000000000000D+00
      .312000000000D+01  .000000000000D+00  .395812094212D-08  .442378222942D-08
      .555595000000D+06  .000000000000D+00
E15 2023 12 30 10 10 00 -.774421496317D-04 -.198951966013D-11  .000000000000D+00
      .290000000000D+02  .150375000000D+03  .261260882564D-08 -.305289194253D+01
      .693462789059D-05  .399767421186D-03  .198744237423D-05  .544060613823D+04
      .555000000000D+06  .372529029846D-07 -.150367842652D+01 -.931322574615D-08
      .999663659661D+00  .312937500000D+03 -.130145228084D+01 -.562594862906D-08
      .324299222650D-09  .513000000000D+03  .229400000000D+04  .000000000000D+00
      .312000000000D+01  .000000000000D+00  .605359673500D-08  .675208866596D-08
      .555685000000D+06  .000000000000D+00
E31 2023 12 30 10 10 00 -.127189559862D-04 -.781597009336D-12  .000000000000D+00
      .290000000000D+02 -.990625000000D+01  .324299222650D-08  .109916440879D+01
     -.432133674622D-06  .193539075553D-03  .649318099022D-05  .544060782623D+04
      .555000000000D+06 -.186264514923D-07  .268945185293D+01  .186264514923D-08
      .967338048941D+00  .204437500000D+03 -.246168964417D+00 -.550522931490D-08
     -.472876840076D-09  .513000000000D+03  .229400000000D+04  .000000000000D+00
      .312000000000D+01  .000000000000D+00  .465661287308D-08  .512227416039D-08
      .555685000000D+06  .000000000000D+00
E05 2023 12 30 10 10 00  .470545492135D-02  .365218966181D-11  .000000000000D+00
      .290000000000D+02 -.117218750000D+03  .296869508664D-08 -.127429660944D+01
     -.539235770702D-05  .665856059641D-04  .112280249596D-04  .544061371803D+04
      .555000000000D+06  .186264514923D-07  .590303722874D+00  .167638063431D-07
      .960409506534D+00  .979375000000D+02  .264489122634D+01 -.536093759028D-08
      .228580949885D-09  .513000000000D+03  .229400000000D+04  .000000000000D+00
      .312000000000D+01  .000000000000D+00  .395812094212D-08  .442378222942D-08
      .555685000000D+06  .000000000000D+00
E24 2023 12 30 10 10 00 -.514152343385D-03 -.209894324144D-10  .000000000000D+00
      .290000000000D+02 -.975000000000D+01  .332799576724D-08 -.709136865665D+00
     -.489875674248D-06  .736489542760D-03  .634975731373D-05  .544061811447D+04
      .555000000000D+06 -.149011611938D-07  .269278772455D+01  .186264514923D-08
      .965212427509D+00  .205156250000D+03  .795554940297D+00 -.556380318331D-08
     -.499306512406D-09  .513000000000D+03  .229400000000D+04  .000000000000D+00
      .312000000000D+01  .000000000000D+00 -.325962901115D-08 -.419095158577D-08
      .555685000000D+06  .000000000000D+00
E34 2023 12 30 10 10 00 -.861838343553D-04 -.208899564313D-11  .000000000000D+00
      .290000000000D+02  .142625000000D+03  .257117852848D-08 -.107679884760D+01
      .667944550514D-05  .183142372407D-03  .163726508617D-05  .544060843658D+04
      .555000000000D+06  .502914190292D-07 -.150544320019D+01 -.111758708954D-07
      .999553458042D+00  .324468750000D+03 -.249667440986D+01 -.561809115890D-08
      .326085011321D-09  .513000000000D+03  .229400000000D+04  .000000000000D+00
      .312000000000D+01  .000000000000D+00  .419095158577D-08  .535510480404D-08
      .555835000000D+06  .000000000000D+00
E05 2023 12 30 10 20 00  .470545713324D-02  .365218966181D-11  .000000000000D+00
      .300000000000D+02 -.114531250000D+03  .298155276507D-08 -.120385608866D+01
     -.527873635292D-05  .662353122607D-04  .111311674118D-04  .544061284828D+04
      .555600000000D+06  .149011611938D-07  .590300485436D+00  .186264514923D-07
      .960409638196D+00  .100187500000D+03  .264883564261D+01 -.535950895935D-08
      .230723896291D-09  .513000000000D+03  .229400000000D+04  .000000000000D+00
      .312000000000D+01  .000000000000D+00  .395812094212D-08  .442378222942D-08
      .556285000000D+06  .000000000000D+00
E31 2023 12 30 10 20 00 -.127193052322D-04 -.781597009336D-12  .000000000000D+00
      .300000000000D+02 -.996875000000D+01  .324620664611D-08  .117378747966D+01
     -.433996319771D-06  .193546409719D-03  .648573040962D-05  .544060773468D+04
      .555600000000D+06 -.186264514923D-07  .268944855698D+01  .000000000000D+00
      .967337772450D+00  .204812500000D+03 -.246406419428D+00 -.550487215716D-08
     -.474305471012D-09  .513000000000D+03  .229400000000D+04  .000000000000D+00
      .312000000000D+01  .000000000000D+00  .465661287308D-08  .512227416039D-08
      .556285000000D+06  .000000000000D+00
E24 2023 12 30 10 20 00 -.514164858032D-03 -.209894324144D-10  .000000000000D+00
      .300000000000D+02 -.946875000000D+01  .332906724044D-08 -.634748673613D+00
     -.473111867905D-06  .736524350941D-03  .634789466858D-05  .544061818504D+04
      .555600000000D+06 -.130385160446D-07  .269278438324D+01 -.186264514923D-08
      .965212112982D+00  .205187500000D+03  .795552062737D+00 -.556594612971D-08
     -.497877881469D-09  .513000000000D+03  .229400000000D+04  .000000000000D+00
      .312000000000D+01  .000000000000D+00 -.325962901115D-08 -.419095158577D-08
      .556285000000D+06  .000000000000D+00
E09 2023 12 30 10 20 00 -.281361222733D-03 -.136566313813D-10  .000000000000D+00
      .300000000000D+02 -.103500000000D+03  .290047795941D-08  .183345296313D+01
     -.480748713017D-05  .174849061295D-03  .109057873487D-04  .544061409187D+04
      .555600000000D+06 -.745058059692D-08  .589608737308D+00  .931322574615D-08
      .966311487141D+00  .107875000000D+03  .420544513116D+00 -.529200614758D-08
      .238581366443D-09  .513000000000D+03  .229400000000D+04  .000000000000D+00
      .312000000000D+01  .000000000000D+00  .209547579288D-08  .232830643654D-08
      .556375000000D+06  .000000000000D+00
G12 2023 12 30 12 00 00 -.462756492198D-03 -.386535248253D-11  .000000000000D+00
      .760000000000D+02 -.621875000000D+01  .469555273148D-08 -.116505875657D+01
     -.264495611191D-06  .886321463622D-02  .709109008312D-05  .515372896767D+04
      .561600000000D+06 -.856816768646D-07  .274952842714D+01  .217929482460D-06
      .963643690713D+00  .244718750000D+03  .140103486268D+01 -.805604985253D-08
     -.492877673191D-09  .100000000000D+01  .229400000000D+04  .000000000000D+00
      .200000000000D+01  .000000000000D+00 -.125728547573D-07  .760000000000D+02
      .560916000000D+06  .400000000000D+01
E03 2023 12 30 10 20 00 -.835933024064D-04 -.255795384874D-11  .000000000000D+00
      .300000000000D+02 -.124062500000D+03  .286511934372D-08 -.373510081806D+00
     -.571273267269D-05  .241255038418D-03  .120010226965D-04  .544061925316D+04
      .555600000000D+06  .931322574615D-08  .590298150619D+00 -.167638063431D-07
      .960395930654D+00  .798125000000D+02  .103957749814D+01 -.535165148919D-08
      .210365905441D-09  .513000000000D+03  .229400000000D+04  .000000000000D+00
      .312000000000D+01  .000000000000D+00  .302679836750D-08  .349245965481D-08
      .556855000000D+06  .000000000000D+00
